TROOP-F2                
1 60557U 24149CT  26068.81453008  .00139132  00000+0  10931-2 0  9998
2 60557  97.3621 159.7382 0003464 230.7595 129.3361 15.71081872 87567
STARLINK-11363 [DTC]    
1 62012U 24213E   26068.35658608  .00142910  00000+0  11620-2 0  9994
2 62012  53.1571  42.8483 0001510  61.0784 299.0385 15.69756059 74861
